      2.10          N: GNSS NAV DATA                        RINEX VERSION / TYPE
fic2rin                                 04/29/2022 00:17:33 PGM / RUN BY / DATE
                                                            END OF HEADER
6  22  4 28  1 59 44.0  .282666180283D-03  .140971678775D-10  .000000000000D+00
     .400000000000D+01  .110937500000D+02  .386016079119D-08 -.144655463542D+01
     .538304448128D-06  .260836444795D-02  .121202319860D-04  .515371567345D+04
     .352784000000D+06 -.596046447754D-07  .311118178466D+01 -.558793544769D-07
     .987235576633D+00  .164656250000D+03 -.867410455424D+00 -.763388941071D-08
     .343228582562D-09  .100000000000D+01  .220700000000D+04  .000000000000D+00
     .240000000000D+01  .000000000000D+00  .372529029846D-08  .400000000000D+01
     .345600000000D+06  .400000000000D+01
8  22  4 28  1 59 44.0 -.657364726067D-04 -.159161572810D-11  .000000000000D+00
     .830000000000D+02 -.812500000000D+02  .451411660250D-08  .505376013591D+00
    -.415369868279D-05  .744483445305D-02  .723823904991D-05  .515375142670D+04
     .352784000000D+06  .163912773132D-06  .203831328592D+01  .856816768646D-07
     .963676353285D+00  .241718750000D+03  .158388098209D+00 -.823891461244D-08
    -.381801617856D-09  .100000000000D+01  .220700000000D+04  .000000000000D+00
     .240000000000D+01  .000000000000D+00  .512227416039D-08  .830000000000D+02
     .345600000000D+06  .400000000000D+01
21 22  4 28 15 59 44.0  .160785857588D-03  .227373675443D-12  .000000000000D+00
     .300000000000D+01 -.108750000000D+02  .420660379336D-08  .173474460358D+01
    -.469386577606D-06  .243349784287D-01  .115297734737D-04  .515376544762D+04
     .403184000000D+06  .413507223129D-06  .302626543933D+01  .139698386192D-06
     .960340254918D+00  .144906250000D+03 -.958334569361D+00 -.758281585472D-08
    -.155363614375D-09  .100000000000D+01  .220700000000D+04  .000000000000D+00
     .240000000000D+01  .000000000000D+00 -.102445483208D-07  .300000000000D+01
     .398700000000D+06  .400000000000D+01
4  22  4 28 17 29 36.0 -.172035768628D-03  .329691829393D-11  .000000000000D+00
     .730000000000D+02 -.606250000000D+02  .454626079858D-08  .189638688552D+01
    -.313296914101D-05  .180190918036D-02  .797398388386D-05  .515362358856D+04
     .408576000000D+06 -.167638063431D-07 -.104843790287D+01  .167638063431D-07
     .961045429708D+00  .226125000000D+03 -.297316270825D+01 -.808855120634D-08
    -.502520932014D-09  .100000000000D+01  .220700000000D+04  .000000000000D+00
     .240000000000D+01  .000000000000D+00 -.419095158577D-08  .585000000000D+03
     .401400000000D+06  .400000000000D+01
3  22  4 28 17 59 44.0 -.224574003369D-03 -.145519152284D-10  .000000000000D+00
     .400000000000D+01  .333437500000D+02  .462590697331D-08 -.684764716296D+00
     .167079269886D-05  .407927378546D-02  .467896461487D-05  .515362891960D+04
     .410384000000D+06  .298023223877D-07 -.213030911609D+01  .614672899246D-07
     .973253943362D+00  .294343750000D+03  .945879036139D+00 -.828605943335D-08
     .210723063176D-09  .100000000000D+01  .220700000000D+04  .000000000000D+00
     .240000000000D+01  .000000000000D+00  .186264514923D-08  .400000000000D+01
     .403200000000D+06  .400000000000D+01
29 22  4 28 17 59 44.0 -.508045777678D-03 -.409272615798D-11  .000000000000D+00
     .200000000000D+01 -.946875000000D+02  .435375277985D-08  .276943087316D+01
    -.476464629173D-05  .208537443541D-02  .658072531223D-05  .515371519279D+04
     .410384000000D+06  .651925802231D-07  .213404607302D+01  .316649675369D-07
     .980951648596D+00  .265062500000D+03  .224534104034D+01 -.805390690612D-08
    -.422874757288D-09  .100000000000D+01  .220700000000D+04  .000000000000D+00
     .240000000000D+01  .000000000000D+00 -.102445483208D-07  .200000000000D+01
     .403200000000D+06  .400000000000D+01
21 22  4 28 17 59 44.0  .160787720233D-03  .227373675443D-12  .000000000000D+00
     .400000000000D+01 -.206250000000D+01  .421481842125D-08  .278480176366D+01
     .191852450371D-06  .243338680593D-01  .123605132103D-04  .515376898384D+04
     .410384000000D+06  .294297933578D-06  .302621050821D+01  .376254320145D-06
     .960339233801D+00  .133968750000D+03 -.958270104413D+00 -.754781439677D-08
    -.460733477113D-10  .100000000000D+01  .220700000000D+04  .000000000000D+00
     .240000000000D+01  .000000000000D+00 -.102445483208D-07  .400000000000D+01
     .403200000000D+06  .400000000000D+01
20 22  4 28 17 59 44.0  .515615101904D-03 -.227373675443D-12  .000000000000D+00
     .200000000000D+02  .537812500000D+02  .514092842602D-08  .144918957910D+01
     .289641320705D-05  .483495893423D-02  .591948628426D-05  .515355545998D+04
     .410384000000D+06 -.540167093277D-07 -.228704313086D+01  .819563865662D-07
     .942668532214D+00  .256843750000D+03 -.312275154000D+01 -.844820904467D-08
     .307869966877D-09  .100000000000D+01  .220700000000D+04  .000000000000D+00
     .240000000000D+01  .000000000000D+00 -.838190317154D-08  .200000000000D+02
     .403200000000D+06  .400000000000D+01
2  22  4 28 18  0  0.0 -.653258059174D-03 -.113686837722D-12  .000000000000D+00
     .860000000000D+02 -.261562500000D+02  .423910514717D-08  .581450098770D+00
    -.138767063618D-05  .204513180070D-01  .128243118525D-04  .515365816689D+04
     .410400000000D+06 -.229105353355D-06  .302829944259D+01 -.150874257088D-06
     .966063444992D+00  .143656250000D+03 -.142186893005D+01 -.820605610089D-08
    -.150006248362D-10  .100000000000D+01  .220700000000D+04  .000000000000D+00
     .240000000000D+01  .000000000000D+00 -.176951289177D-07  .860000000000D+02
     .403200000000D+06  .400000000000D+01
1  22  4 28 18  0  0.0  .374682713300D-03 -.852651282912D-11  .000000000000D+00
     .520000000000D+02  .756250000000D+01  .379158650623D-08  .433108299351D+00
     .633299350739D-06  .118100694381D-01  .119879841805D-04  .515366916847D+04
     .410400000000D+06 -.106170773506D-06  .311901813796D+01  .186264514923D-06
     .987901710529D+00  .162156250000D+03  .897443772993D+00 -.777318092704D-08
     .575023952056D-10  .100000000000D+01  .220700000000D+04  .000000000000D+00
     .240000000000D+01  .000000000000D+00  .512227416039D-08  .520000000000D+02
     .403200000000D+06  .400000000000D+01
6  22  4 28 18  0  0.0  .283478759229D-03  .140971678775D-10  .000000000000D+00
     .700000000000D+01 -.312500000000D+00  .366443835285D-08  .674087329277D+00
    -.154599547386D-06  .260776607320D-02  .128634274006D-04  .515371644402D+04
     .410400000000D+06  .372529029846D-07  .311074691324D+01 -.316649675369D-07
     .987251480015D+00  .145531250000D+03 -.867722765028D+00 -.757138680722D-08
     .103575742917D-09  .100000000000D+01  .220700000000D+04  .000000000000D+00
     .240000000000D+01  .000000000000D+00  .372529029846D-08  .700000000000D+01
     .403200000000D+06  .400000000000D+01
10 22  4 28 18  0  0.0 -.395133625716D-03 -.135287336889D-10  .000000000000D+00
     .190000000000D+02  .381250000000D+02  .442232706482D-08 -.160625387396D+01
     .193901360035D-05  .757717550732D-02  .511854887009D-05  .515367568207D+04
     .410400000000D+06  .102445483208D-06 -.213307320032D+01 -.128522515297D-06
     .973068620900D+00  .289406250000D+03 -.249278494664D+01 -.804854954011D-08
     .283583240952D-09  .100000000000D+01  .220700000000D+04  .000000000000D+00
     .240000000000D+01  .000000000000D+00  .232830643654D-08  .190000000000D+02
     .403200000000D+06  .400000000000D+01
5  22  4 28 18  0  0.0 -.799451954663D-04 -.136424205266D-11  .000000000000D+00
     .150000000000D+03  .441875000000D+02  .480448584041D-08  .309382370282D+01
     .227801501751D-05  .593052315526D-02  .524148344994D-05  .515370366669D+04
     .410400000000D+06  .335276126862D-07 -.217168322330D+01 -.409781932831D-07
     .960294203720D+00  .277750000000D+03  .101388764433D+01 -.821391357104D-08
     .330728061866D-09  .100000000000D+01  .220700000000D+04  .000000000000D+00
     .240000000000D+01  .000000000000D+00 -.111758708954D-07  .150000000000D+03
     .403200000000D+06  .400000000000D+01
4  22  4 28 18  0  0.0 -.172029715031D-03  .329691829393D-11  .000000000000D+00
     .740000000000D+02 -.585000000000D+02  .455804700381D-08  .216257491101D+01
    -.303797423840D-05  .180203537457D-02  .794976949692D-05  .515362309265D+04
     .410400000000D+06 -.149011611938D-07 -.104845264762D+01  .186264514923D-07
     .961044509533D+00  .226687500000D+03 -.297329705533D+01 -.808962267954D-08
    -.503949562951D-09  .100000000000D+01  .220700000000D+04  .000000000000D+00
     .240000000000D+01  .000000000000D+00 -.419095158577D-08  .586000000000D+03
     .403200000000D+06  .400000000000D+01
